HORYU-4                 
1 41340U 16012D   26062.46124036  .00094219  00000+0  10417-2 0  9993
2 41340  30.9913 111.5367 0002020  83.5639 276.5244 15.61617061554133
RAVAN                   
1 41849U 16067B   26063.14142939  .00056441  00000+0  11665-2 0  9996
2 41849  98.0055 301.2845 0006914  23.8193 336.3373 15.45614627511426
CELTEE 1                
1 41850U 16067C   26063.14733613  .00009698  00000+0  47357-3 0  9993
2 41850  98.0822 282.5413 0000642 129.9532 230.1757 15.18503242509939
OPTICUBE 04             
1 41851U 16067D   26062.60907583  .00003198  00000+0  20535-3 0  9991
2 41851  98.0806 269.3393 0017015 113.0129 247.2895 15.09141661509249
AEROCUBE 8D             
1 41852U 16067E   26063.14265439  .00012915  00000+0  55601-3 0  9998
2 41852  98.0837 285.3504 0004474 125.5574 234.6079 15.22750960510073
AEROCUBE 8C             
1 41853U 16067F   26063.11814807  .00013079  00000+0  55917-3 0  9997
2 41853  98.0701 282.6910 0006668  69.2620 290.9329 15.22972650510062
CORVUS BC2              
1 42846U 17042X   26063.01174544  .00006979  00000+0  48762-3 0  9991
2 42846  97.3926 228.5700 0014248 111.2589 249.0161 15.05538924471234
CORVUS BC1              
1 42847U 17042Y   26063.01907854  .00005395  00000+0  37594-3 0  9992
2 42847  97.3954 229.3188 0013267  89.3350 270.9397 15.05753866471267
MAKERSAT 0              
1 43016U 17073D   26062.61045766  .00030771  00000+0  93724-3 0  9998
2 43016  97.4798 304.5701 0116176 287.7327  71.1259 15.27450576450329
SIRION PATHFINDER-2     
1 43759U 18099B   26063.09802829  .00008564  00000+0  48206-3 0  9995
2 43759  97.4397 114.6561 0007597 309.3064  50.7493 15.13455558396723
CORVUS BC4              
1 43767U 18099K   26063.09860989  .00006680  00000+0  39731-3 0  9995
2 43767  97.4215 109.1454 0008621  15.6808 344.4687 15.11541927396523
SPACEBEE-7              
1 43816U 18099BL  26062.75383046  .01518015  14900-2  21750-2 0  9995
2 43816  97.4393 149.2076 0008316 273.3337  86.6993 16.05785040398269
M2 PATHFINDER           
1 45727U 20037E   26063.09123550  .00004178  00000+0  30540-3 0  9993
2 45727  97.8143 253.1523 0012386 144.1167 216.0892 15.04130920309694
NETSAT-4                
1 46504U 20068U   26062.48393153  .00022655  00000+0  56768-3 0  9991
2 46504  97.8635  62.5212 0005480   3.1747 356.9532 15.40063453299482
NETSAT-3                
1 46505U 20068V   26062.92417100  .00027569  00000+0  72018-3 0  9995
2 46505  97.8669  61.3625 0005975  18.3441 341.8017 15.38743481299476
NETSAT-1                
1 46506U 20068W   26062.93692587  .00022007  00000+0  71772-3 0  9999
2 46506  97.8738  56.8720 0006588  36.4699 323.6989 15.31800846299171
NETSAT-2                
1 46507U 20068X   26063.02632216  .00034491  00000+0  82919-3 0  9999
2 46507  97.8649  62.6968 0005364  37.0405 323.1210 15.41233565299514
