[{"OBJECT_NAME":"HORYU-4","OBJECT_ID":"2016-012D","EPOCH":"2026-03-03T11:04:11.167104","MEAN_MOTION":15.61617061,"ECCENTRICITY":0.00020209,"INCLINATION":30.9913,"RA_OF_ASC_NODE":111.5367,"ARG_OF_PERICENTER":83.5639,"MEAN_ANOMALY":276.5244,"EPHEMERIS_TYPE":0,"CLASSIFICATION_TYPE":"U","NORAD_CAT_ID":41340,"ELEMENT_SET_NO":999,"REV_AT_EPOCH":55413,"BSTAR":0.0010416691,"MEAN_MOTION_DOT":0.00094219,"MEAN_MOTION_DDOT":0},{"OBJECT_NAME":"RAVAN","OBJECT_ID":"2016-067B","EPOCH":"2026-03-04T03:23:39.499296","MEAN_MOTION":15.45614627,"ECCENTRICITY":0.0006914,"INCLINATION":98.0055,"RA_OF_ASC_NODE":301.2845,"ARG_OF_PERICENTER":23.8193,"MEAN_ANOMALY":336.3373,"EPHEMERIS_TYPE":0,"CLASSIFICATION_TYPE":"U","NORAD_CAT_ID":41849,"ELEMENT_SET_NO":999,"REV_AT_EPOCH":51142,"BSTAR":0.0011665,"MEAN_MOTION_DOT":0.00056441,"MEAN_MOTION_DDOT":0},{"OBJECT_NAME":"CELTEE 1","OBJECT_ID":"2016-067C","EPOCH":"2026-03-04T03:32:09.841632","MEAN_MOTION":15.18503242,"ECCENTRICITY":6.42e-5,"INCLINATION":98.0822,"RA_OF_ASC_NODE":282.5413,"ARG_OF_PERICENTER":129.9532,"MEAN_ANOMALY":230.1757,"EPHEMERIS_TYPE":0,"CLASSIFICATION_TYPE":"U","NORAD_CAT_ID":41850,"ELEMENT_SET_NO":999,"REV_AT_EPOCH":50993,"BSTAR":0.00047357,"MEAN_MOTION_DOT":9.698e-5,"MEAN_MOTION_DDOT":0},{"OBJECT_NAME":"OPTICUBE 04","OBJECT_ID":"2016-067D","EPOCH":"2026-03-03T14:37:04.151712","MEAN_MOTION":15.09141661,"ECCENTRICITY":0.0017015,"INCLINATION":98.0806,"RA_OF_ASC_NODE":269.3393,"ARG_OF_PERICENTER":113.0129,"MEAN_ANOMALY":247.2895,"EPHEMERIS_TYPE":0,"CLASSIFICATION_TYPE":"U","NORAD_CAT_ID":41851,"ELEMENT_SET_NO":999,"REV_AT_EPOCH":50924,"BSTAR":0.00020535,"MEAN_MOTION_DOT":3.198e-5,"MEAN_MOTION_DDOT":0},{"OBJECT_NAME":"AEROCUBE 8D","OBJECT_ID":"2016-067E","EPOCH":"2026-03-04T03:25:25.339296","MEAN_MOTION":15.2275096,"ECCENTRICITY":0.0004474,"INCLINATION":98.0837,"RA_OF_ASC_NODE":285.3504,"ARG_OF_PERICENTER":125.5574,"MEAN_ANOMALY":234.6079,"EPHEMERIS_TYPE":0,"CLASSIFICATION_TYPE":"U","NORAD_CAT_ID":41852,"ELEMENT_SET_NO":999,"REV_AT_EPOCH":51007,"BSTAR":0.00055601,"MEAN_MOTION_DOT":0.00012915,"MEAN_MOTION_DDOT":0},{"OBJECT_NAME":"AEROCUBE 8C","OBJECT_ID":"2016-067F","EPOCH":"2026-03-04T02:50:07.993248","MEAN_MOTION":15.2297265,"ECCENTRICITY":0.0006668,"INCLINATION":98.0701,"RA_OF_ASC_NODE":282.691,"ARG_OF_PERICENTER":69.262,"MEAN_ANOMALY":290.9329,"EPHEMERIS_TYPE":0,"CLASSIFICATION_TYPE":"U","NORAD_CAT_ID":41853,"ELEMENT_SET_NO":999,"REV_AT_EPOCH":51006,"BSTAR":0.00055917,"MEAN_MOTION_DOT":0.00013079,"MEAN_MOTION_DDOT":0},{"OBJECT_NAME":"CORVUS BC2","OBJECT_ID":"2017-042X","EPOCH":"2026-03-04T00:16:54.806016","MEAN_MOTION":15.05538924,"ECCENTRICITY":0.0014248,"INCLINATION":97.3926,"RA_OF_ASC_NODE":228.57,"ARG_OF_PERICENTER":111.2589,"MEAN_ANOMALY":249.0161,"EPHEMERIS_TYPE":0,"CLASSIFICATION_TYPE":"U","NORAD_CAT_ID":42846,"ELEMENT_SET_NO":999,"REV_AT_EPOCH":47123,"BSTAR":0.00048762,"MEAN_MOTION_DOT":6.979e-5,"MEAN_MOTION_DDOT":0},{"OBJECT_NAME":"CORVUS BC1","OBJECT_ID":"2017-042Y","EPOCH":"2026-03-04T00:27:28.385856","MEAN_MOTION":15.05753866,"ECCENTRICITY":0.0013267,"INCLINATION":97.3954,"RA_OF_ASC_NODE":229.3188,"ARG_OF_PERICENTER":89.335,"MEAN_ANOMALY":270.9397,"EPHEMERIS_TYPE":0,"CLASSIFICATION_TYPE":"U","NORAD_CAT_ID":42847,"ELEMENT_SET_NO":999,"REV_AT_EPOCH":47126,"BSTAR":0.00037594,"MEAN_MOTION_DOT":5.395e-5,"MEAN_MOTION_DDOT":0},{"OBJECT_NAME":"MAKERSAT 0","OBJECT_ID":"2017-073D","EPOCH":"2026-03-03T14:39:03.541824","MEAN_MOTION":15.27450576,"ECCENTRICITY":0.0116176,"INCLINATION":97.4798,"RA_OF_ASC_NODE":304.5701,"ARG_OF_PERICENTER":287.7327,"MEAN_ANOMALY":71.1259,"EPHEMERIS_TYPE":0,"CLASSIFICATION_TYPE":"U","NORAD_CAT_ID":43016,"ELEMENT_SET_NO":999,"REV_AT_EPOCH":45032,"BSTAR":0.00093724,"MEAN_MOTION_DOT":0.00030771,"MEAN_MOTION_DDOT":0},{"OBJECT_NAME":"SIRION PATHFINDER-2","OBJECT_ID":"2018-099B","EPOCH":"2026-03-04T02:21:09.644256","MEAN_MOTION":15.13455558,"ECCENTRICITY":0.0007597,"INCLINATION":97.4397,"RA_OF_ASC_NODE":114.6561,"ARG_OF_PERICENTER":309.3064,"MEAN_ANOMALY":50.7493,"EPHEMERIS_TYPE":0,"CLASSIFICATION_TYPE":"U","NORAD_CAT_ID":43759,"ELEMENT_SET_NO":999,"REV_AT_EPOCH":39672,"BSTAR":0.00048206,"MEAN_MOTION_DOT":8.564e-5,"MEAN_MOTION_DDOT":0},{"OBJECT_NAME":"CORVUS BC4","OBJECT_ID":"2018-099K","EPOCH":"2026-03-04T02:21:59.894496","MEAN_MOTION":15.11541927,"ECCENTRICITY":0.0008621,"INCLINATION":97.4215,"RA_OF_ASC_NODE":109.1454,"ARG_OF_PERICENTER":15.6808,"MEAN_ANOMALY":344.4687,"EPHEMERIS_TYPE":0,"CLASSIFICATION_TYPE":"U","NORAD_CAT_ID":43767,"ELEMENT_SET_NO":999,"REV_AT_EPOCH":39652,"BSTAR":0.00039731,"MEAN_MOTION_DOT":6.68e-5,"MEAN_MOTION_DDOT":0},{"OBJECT_NAME":"SPACEBEE-7","OBJECT_ID":"2018-099BL","EPOCH":"2026-03-03T18:05:30.951744","MEAN_MOTION":16.0578504,"ECCENTRICITY":0.00083164,"INCLINATION":97.4393,"RA_OF_ASC_NODE":149.2076,"ARG_OF_PERICENTER":273.3337,"MEAN_ANOMALY":86.6993,"EPHEMERIS_TYPE":0,"CLASSIFICATION_TYPE":"U","NORAD_CAT_ID":43816,"ELEMENT_SET_NO":999,"REV_AT_EPOCH":39826,"BSTAR":0.0021750377,"MEAN_MOTION_DOT":0.01518015,"MEAN_MOTION_DDOT":0.001489975},{"OBJECT_NAME":"M2 PATHFINDER","OBJECT_ID":"2020-037E","EPOCH":"2026-03-04T02:11:22.747200","MEAN_MOTION":15.0413092,"ECCENTRICITY":0.0012386,"INCLINATION":97.8143,"RA_OF_ASC_NODE":253.1523,"ARG_OF_PERICENTER":144.1167,"MEAN_ANOMALY":216.0892,"EPHEMERIS_TYPE":0,"CLASSIFICATION_TYPE":"U","NORAD_CAT_ID":45727,"ELEMENT_SET_NO":999,"REV_AT_EPOCH":30969,"BSTAR":0.0003054,"MEAN_MOTION_DOT":4.178e-5,"MEAN_MOTION_DDOT":0},{"OBJECT_NAME":"NETSAT-4","OBJECT_ID":"2020-068U","EPOCH":"2026-03-03T11:36:51.684192","MEAN_MOTION":15.40063453,"ECCENTRICITY":0.00054805,"INCLINATION":97.8635,"RA_OF_ASC_NODE":62.5212,"ARG_OF_PERICENTER":3.1747,"MEAN_ANOMALY":356.9532,"EPHEMERIS_TYPE":0,"CLASSIFICATION_TYPE":"U","NORAD_CAT_ID":46504,"ELEMENT_SET_NO":999,"REV_AT_EPOCH":29948,"BSTAR":0.00056768496,"MEAN_MOTION_DOT":0.00022655,"MEAN_MOTION_DDOT":0},{"OBJECT_NAME":"NETSAT-3","OBJECT_ID":"2020-068V","EPOCH":"2026-03-03T22:10:48.374400","MEAN_MOTION":15.38743481,"ECCENTRICITY":0.0005975,"INCLINATION":97.8669,"RA_OF_ASC_NODE":61.3625,"ARG_OF_PERICENTER":18.3441,"MEAN_ANOMALY":341.8017,"EPHEMERIS_TYPE":0,"CLASSIFICATION_TYPE":"U","NORAD_CAT_ID":46505,"ELEMENT_SET_NO":999,"REV_AT_EPOCH":29947,"BSTAR":0.00072018,"MEAN_MOTION_DOT":0.00027569,"MEAN_MOTION_DDOT":0},{"OBJECT_NAME":"NETSAT-1","OBJECT_ID":"2020-068W","EPOCH":"2026-03-03T22:29:10.395168","MEAN_MOTION":15.31800846,"ECCENTRICITY":0.0006588,"INCLINATION":97.8738,"RA_OF_ASC_NODE":56.872,"ARG_OF_PERICENTER":36.4699,"MEAN_ANOMALY":323.6989,"EPHEMERIS_TYPE":0,"CLASSIFICATION_TYPE":"U","NORAD_CAT_ID":46506,"ELEMENT_SET_NO":999,"REV_AT_EPOCH":29917,"BSTAR":0.00071772,"MEAN_MOTION_DOT":0.00022007,"MEAN_MOTION_DDOT":0},{"OBJECT_NAME":"NETSAT-2","OBJECT_ID":"2020-068X","EPOCH":"2026-03-04T00:37:54.234624","MEAN_MOTION":15.41233565,"ECCENTRICITY":0.0005364,"INCLINATION":97.8649,"RA_OF_ASC_NODE":62.6968,"ARG_OF_PERICENTER":37.0405,"MEAN_ANOMALY":323.121,"EPHEMERIS_TYPE":0,"CLASSIFICATION_TYPE":"U","NORAD_CAT_ID":46507,"ELEMENT_SET_NO":999,"REV_AT_EPOCH":29951,"BSTAR":0.00082919,"MEAN_MOTION_DOT":0.00034491,"MEAN_MOTION_DDOT":0}]
